[{"OBJECT_NAME":"EOS-6 (OCEANSAT-3)","OBJECT_ID":"2022-158A","EPOCH":"2026-03-09T22:24:42.764256","MEAN_MOTION":14.47005704,"ECCENTRICITY":1.733e-5,"INCLINATION":98.3487,"RA_OF_ASC_NODE":168.4787,"ARG_OF_PERICENTER":158.292,"MEAN_ANOMALY":201.828,"EPHEMERIS_TYPE":0,"CLASSIFICATION_TYPE":"U","NORAD_CAT_ID":54361,"ELEMENT_SET_NO":999,"REV_AT_EPOCH":17348,"BSTAR":0.00014313559,"MEAN_MOTION_DOT":4.77e-6,"MEAN_MOTION_DDOT":0},{"OBJECT_NAME":"FENGYUN 1C DEB","OBJECT_ID":"1999-025BVK","EPOCH":"2026-03-07T10:29:24.444672","MEAN_MOTION":14.15910921,"ECCENTRICITY":0.01472467,"INCLINATION":97.9755,"RA_OF_ASC_NODE":306.2797,"ARG_OF_PERICENTER":109.328,"MEAN_ANOMALY":252.3885,"EPHEMERIS_TYPE":0,"CLASSIFICATION_TYPE":"U","NORAD_CAT_ID":31471,"ELEMENT_SET_NO":999,"REV_AT_EPOCH":65175,"BSTAR":0.0019696563,"MEAN_MOTION_DOT":4.275e-5,"MEAN_MOTION_DDOT":0}]
